{"fetched_at":"2026-03-29T16:36:15Z","count":15609,"tles":[{"name":"STARLINK-35777","line1":"1 66975U 25288S   26087.85470683  .00043762  00000+0  15883-2 0  9990","line2":"2 66975  43.0025 275.6324 0002034 261.6548  98.4073 15.27622736 18213","category":"Starlink"}]}