{
  "norad_id": 66975,
  "name": "STARLINK-35777",
  "history": [
    {
      "epoch": "2026-03-28T20:30:46.670112",
      "apogee_km": 484.31667128881054,
      "perigee_km": 481.52559284068775,
      "latitude_deg": 32.62967819397662,
      "longitude_deg": -120.44814432016574,
      "semi_major_axis_km": 6861.058132064749,
      "eccentricity": 0.0002034,
      "inclination_deg": 43.0025,
      "raan_deg": 275.6324,
      "arg_perigee_deg": 261.6548,
      "mean_anomaly_deg": 98.4073,
      "mean_motion_rev_day": 15.27622736
    }
  ]
}